STARLINK-11659 [DTC]    
1 63266U 25053B   25145.04267051  .00000565  00000+0  61130-5 0  9991
2 63266  43.0045  52.9234 0001592 276.1678  83.9011 15.77859147 12368
STARLINK-11653 [DTC]    
1 63267U 25053C   25145.15951610 -.00000405  00000+0  54004-6 0  9992
2 63267  43.0017  52.0688 0001962 260.5402  99.5246 15.77849884 12387
STARLINK-11641 [DTC]    
1 63268U 25053D   25145.10109755 -.00001173  00000+0 -38750-5 0  9996
2 63268  43.0022  52.4950 0001595 278.6355  81.4334 15.77853963 12379
STARLINK-11638 [DTC]    
1 63269U 25053E   25145.09133672 -.00000160  00000+0  19451-5 0  9991
2 63269  43.0036  52.4141 0001540 270.9493  89.1201 15.77855071 12375
STARLINK-11614 [DTC]    
1 63270U 25053F   25144.99937053 -.00000751  00000+0 -14483-5 0  9993
2 63270  43.0024  53.4678 0001495 266.3343  93.7356 15.77854752 12245
STARLINK-11620 [DTC]    
1 63271U 25053G   25144.74569495 -.00000931  00000+0 -24808-5 0  9990
2 63271  43.0031  55.0061 0001777 268.8448  91.2219 15.77858674 12219
STARLINK-11619 [DTC]    
1 63272U 25053H   25144.80411423  .00000620  00000+0  64234-5 0  9995
2 63272  43.0003  54.5803 0000968 242.8168 117.2603 15.77854996 12229
STARLINK-11621 [DTC]    
1 63273U 25053J   25145.11573120  .00000307  00000+0  46324-5 0  9996
2 63273  43.0012  52.6155 0001857 268.1476  91.9182 15.77857350 12272
STARLINK-11615 [DTC]    
1 63274U 25053K   25144.13269486 -.00001158  00000+0 -37914-5 0  9997
2 63274  42.9999  59.0245 0001462 261.5062  98.5642 15.77857155 12116
STARLINK-11608 [DTC]    
1 63275U 25053L   25144.95071028  .00000141  00000+0  36748-5 0  9994
2 63275  43.0028  53.9743 0001572 274.9240  85.1451 15.77855216 12235
STARLINK-11623 [DTC]    
1 63276U 25053M   25144.75592996  .00000374  00000+0  50140-5 0  9995
2 63276  43.0020  55.0896 0001713 276.3982  83.6693 15.77857594 12205
STARLINK-11612 [DTC]    
1 63277U 25053N   25144.94095283 -.00000367  00000+0  75541-6 0  9990
2 63277  43.0008  53.8930 0001578 273.7630  86.3059 15.77853479 12188
STARLINK-33660          
1 63278U 25053P   25145.25002315  .00046893  00000+0  17047-2 0  9996
2 63278  43.0002  70.9836 0000754 255.7040 240.2924 15.27543143 12190
STARLINK-33611          
1 63279U 25053Q   25145.06096784 -.00000219  00000+0  20269-5 0  9995
2 63279  43.0052  69.0056 0001121 266.3864  93.6865 15.40699030 12196
STARLINK-33646          
1 63280U 25053R   25144.91668981 -.00055423  00000+0 -20165-2 0  9994
2 63280  43.0031  72.3910 0001355 266.4672  32.3223 15.27629925  5784
STARLINK-33665          
1 63281U 25053S   25144.91668981 -.00050320  00000+0 -18291-2 0  9993
2 63281  43.0014  72.0928 0001151 262.4442 156.6853 15.27623243  5941
STARLINK-33603          
1 63282U 25053T   25145.16380633 -.00000162  00000+0  36285-5 0  9991
2 63282  42.9999  71.5043 0000969 273.5573  86.5168 15.27573842 12170
STARLINK-33669          
1 63283U 25053U   25144.91668981 -.00026864  00000+0 -96975-3 0  9997
2 63283  43.0034  72.1987 0001231 268.1409 108.4999 15.27595817  5790
STARLINK-33673          
1 63284U 25053V   25145.06322190  .00001810  00000+0  50630-4 0  9995
2 63284  43.0016  69.0160 0001032 257.7064 102.3677 15.40668891 12195
STARLINK-33662          
1 63285U 25053W   25144.91668981 -.00033229  00000+0 -12025-2 0  9995
2 63285  43.0025  72.4885 0001464 261.4631 354.9247 15.27603944  5811
STARLINK-33613          
1 63286U 25053X   25144.91668981 -.00033303  00000+0 -12053-2 0  9990
2 63286  43.0002  72.7813 0001095 253.8507 242.2474 15.27602317  5946
STARLINK-33680          
1 63287U 25053Y   25145.25002315  .00048731  00000+0  17707-2 0  9992
2 63287  43.0040  70.4059 0001433 279.5324  97.0170 15.27542924 12140
STARLINK-11568 [DTC]    
1 63307U 25057A   25144.91668981 -.00020883  00000+0 -15968-3 0  9996
2 63307  43.0000 204.8429 0001596 266.7059 131.1390 15.70836396  6016
STARLINK-11575 [DTC]    
1 63308U 25057B   25145.19089873 -.00000251  00000+0  15393-5 0  9995
2 63308  43.0003 203.5647 0001361 272.6111  87.4601 15.70827871 10643
STARLINK-11585 [DTC]    
1 63309U 25057C   25145.17497174 -.00000352  00000+0  74570-6 0  9996
2 63309  43.0009 203.4360 0001120 262.9364  97.1376 15.70828043 10645
STARLINK-11587 [DTC]    
1 63310U 25057D   25144.44914103  .00000354  00000+0  62507-5 0  9990
2 63310  42.9990 208.3359 0001159 296.9928  63.0821 15.70826298 10525
STARLINK-11589 [DTC]    
1 63311U 25057E   25145.15386372 -.00000271  00000+0  13791-5 0  9991
2 63311  42.9996 204.1599 0001275 274.6262  85.4460 15.70826852 10630
STARLINK-11650 [DTC]    
1 63312U 25057F   25144.88450652 -.00000941  00000+0 -38361-5 0  9999
2 63312  43.0003 205.5722 0001742 265.0107  95.0562 15.70839233 11780
STARLINK-11648 [DTC]    
1 63313U 25057G   25145.20152304 -.00003924  00000+0 -27090-4 0  9990
2 63313  43.0005 203.6480 0001567 272.2245  87.8443 15.70849543 11402
STARLINK-11640 [DTC]    
1 63314U 25057H   25144.87829059  .00000299  00000+0  58242-5 0  9995
2 63314  42.9989 205.5201 0001534 264.8947  95.1745 15.70832097 11755
