OBJECT_NAME,OBJECT_ID,EPOCH,MEAN_MOTION,ECCENTRICITY,INCLINATION,RA_OF_ASC_NODE,ARG_OF_PERICENTER,MEAN_ANOMALY,EPHEMERIS_TYPE,CLASSIFICATION_TYPE,NORAD_CAT_ID,ELEMENT_SET_NO,REV_AT_EPOCH,BSTAR,MEAN_MOTION_DOT,MEAN_MOTION_DDOT
STARLINK-11659 [DTC],2025-053B,2025-05-25T01:01:26.732064,15.77859147,.0001592,43.0045,52.9234,276.1678,83.9011,0,U,63266,999,1236,.6113E-5,.565E-5,0
STARLINK-11653 [DTC],2025-053C,2025-05-25T03:49:42.191040,15.77849884,.0001962,43.0017,52.0688,260.5402,99.5246,0,U,63267,999,1238,.54004E-6,-.405E-5,0
STARLINK-11641 [DTC],2025-053D,2025-05-25T02:25:34.828320,15.77853963,.0001595,43.0022,52.4950,278.6355,81.4334,0,U,63268,999,1237,-.3875E-5,-.1173E-4,0
STARLINK-11638 [DTC],2025-053E,2025-05-25T02:11:31.492608,15.77855071,.000154,43.0036,52.4141,270.9493,89.1201,0,U,63269,999,1237,.19451E-5,-.16E-5,0
STARLINK-11614 [DTC],2025-053F,2025-05-24T23:59:05.613792,15.77854752,.0001495,43.0024,53.4678,266.3343,93.7356,0,U,63270,999,1224,-.14483E-5,-.751E-5,0
STARLINK-11620 [DTC],2025-053G,2025-05-24T17:53:48.043680,15.77858674,.0001777,43.0031,55.0061,268.8448,91.2219,0,U,63271,999,1221,-.24808E-5,-.931E-5,0
STARLINK-11619 [DTC],2025-053H,2025-05-24T19:17:55.469472,15.77854996,.0000968,43.0003,54.5803,242.8168,117.2603,0,U,63272,999,1222,.64234E-5,.62E-5,0
STARLINK-11621 [DTC],2025-053J,2025-05-25T02:46:39.175680,15.77857350,.0001857,43.0012,52.6155,268.1476,91.9182,0,U,63273,999,1227,.46324E-5,.307E-5,0
STARLINK-11615 [DTC],2025-053K,2025-05-24T03:11:04.835904,15.77857155,.0001462,42.9999,59.0245,261.5062,98.5642,0,U,63274,999,1211,-.37914E-5,-.1158E-4,0
STARLINK-11608 [DTC],2025-053L,2025-05-24T22:49:01.368192,15.77855216,.0001572,43.0028,53.9743,274.9240,85.1451,0,U,63275,999,1223,.36748E-5,.141E-5,0
STARLINK-11623 [DTC],2025-053M,2025-05-24T18:08:32.348544,15.77857594,.0001713,43.0020,55.0896,276.3982,83.6693,0,U,63276,999,1220,.5014E-5,.374E-5,0
STARLINK-11612 [DTC],2025-053N,2025-05-24T22:34:58.324512,15.77853479,.0001578,43.0008,53.8930,273.7630,86.3059,0,U,63277,999,1218,.75541E-6,-.367E-5,0
STARLINK-33660,2025-053P,2025-05-25T06:00:02.000160,15.27543143,.0000754,43.0002,70.9836,255.7040,240.2924,0,U,63278,999,1219,.17047E-2,.46893E-3,0
STARLINK-33611,2025-053Q,2025-05-25T01:27:47.621376,15.40699030,.0001121,43.0052,69.0056,266.3864,93.6865,0,U,63279,999,1219,.20269E-5,-.219E-5,0
STARLINK-33646,2025-053R,2025-05-24T22:00:01.999584,15.27629925,.0001355,43.0031,72.3910,266.4672,32.3223,0,U,63280,999,578,-.20165E-2,-.55423E-3,0
STARLINK-33665,2025-053S,2025-05-24T22:00:01.999584,15.27623243,.0001151,43.0014,72.0928,262.4442,156.6853,0,U,63281,999,594,-.18291E-2,-.5032E-3,0
STARLINK-33603,2025-053T,2025-05-25T03:55:52.866912,15.27573842,.0000969,42.9999,71.5043,273.5573,86.5168,0,U,63282,999,1217,.36285E-5,-.162E-5,0
STARLINK-33669,2025-053U,2025-05-24T22:00:01.999584,15.27595817,.0001231,43.0034,72.1987,268.1409,108.4999,0,U,63283,999,579,-.96975E-3,-.26864E-3,0
STARLINK-33673,2025-053V,2025-05-25T01:31:02.372160,15.40668891,.0001032,43.0016,69.0160,257.7064,102.3677,0,U,63284,999,1219,.5063E-4,.181E-4,0
STARLINK-33662,2025-053W,2025-05-24T22:00:01.999584,15.27603944,.0001464,43.0025,72.4885,261.4631,354.9247,0,U,63285,999,581,-.12025E-2,-.33229E-3,0
STARLINK-33613,2025-053X,2025-05-24T22:00:01.999584,15.27602317,.0001095,43.0002,72.7813,253.8507,242.2474,0,U,63286,999,594,-.12053E-2,-.33303E-3,0
STARLINK-33680,2025-053Y,2025-05-25T06:00:02.000160,15.27542924,.0001433,43.0040,70.4059,279.5324,97.0170,0,U,63287,999,1214,.17707E-2,.48731E-3,0
STARLINK-11568 [DTC],2025-057A,2025-05-24T22:00:01.999584,15.70836396,.0001596,43.0000,204.8429,266.7059,131.1390,0,U,63307,999,601,-.15968E-3,-.20883E-3,0
STARLINK-11575 [DTC],2025-057B,2025-05-25T04:34:53.650272,15.70827871,.0001361,43.0003,203.5647,272.6111,87.4601,0,U,63308,999,1064,.15393E-5,-.251E-5,0
STARLINK-11585 [DTC],2025-057C,2025-05-25T04:11:57.558336,15.70828043,.000112,43.0009,203.4360,262.9364,97.1376,0,U,63309,999,1064,.7457E-6,-.352E-5,0
STARLINK-11587 [DTC],2025-057D,2025-05-24T10:46:45.784992,15.70826298,.0001159,42.9990,208.3359,296.9928,63.0821,0,U,63310,999,1052,.62507E-5,.354E-5,0
STARLINK-11589 [DTC],2025-057E,2025-05-25T03:41:33.825408,15.70826852,.0001275,42.9996,204.1599,274.6262,85.4460,0,U,63311,999,1063,.13791E-5,-.271E-5,0
STARLINK-11650 [DTC],2025-057F,2025-05-24T21:13:41.363328,15.70839233,.0001742,43.0003,205.5722,265.0107,95.0562,0,U,63312,999,1178,-.38361E-5,-.941E-5,0
STARLINK-11648 [DTC],2025-057G,2025-05-25T04:50:11.590656,15.70849543,.0001567,43.0005,203.6480,272.2245,87.8443,0,U,63313,999,1140,-.2709E-4,-.3924E-4,0
STARLINK-11640 [DTC],2025-057H,2025-05-24T21:04:44.306976,15.70832097,.0001534,42.9989,205.5201,264.8947,95.1745,0,U,63314,999,1175,.58242E-5,.299E-5,0
